{
    "satellites": [
        {
            "name": "starlink341",
            "title": "Starlink-341 (G6-96) (new)",
            "tle": [
                "1 71386C 26003AE  26013.09979167 -.01190800  00000+0 -15891-2 0   139",
                "2 71386  42.9998 191.6528 0001407 268.9080   2.0050 16.06796065    19"
            ],
            "stdMag": 5,
            "noradId": "71386",
            "tleUrl": "http://celestrak.org/NORAD/elements/supplemental/sup-gp.php?FILE=starlink&FORMAT=tle",
            "launchDate": "2026-01-09T21:41:00.000Z",
            "active": true,
            "batch": [
                {
                    "noradId": "71386",
                    "tle": [
                        "1 71386C 26003AE  26013.09979167 -.01190800  00000+0 -15891-2 0   139",
                        "2 71386  42.9998 191.6528 0001407 268.9080   2.0050 16.06796065    19"
                    ]
                },
                {
                    "noradId": "71384",
                    "tle": [
                        "1 71384C 26003AC  26013.10395833 -.01188800  00000+0 -16077-2 0   135",
                        "2 71384  42.9999 191.6294 0001652 267.7892  26.1443 16.06578694    17"
                    ]
                },
                {
                    "noradId": "71385",
                    "tle": [
                        "1 71385C 26003AD  26013.10881944 -.01187700  00000+0 -15989-2 0   138",
                        "2 71385  42.9998 191.5972 0001433 270.8763  51.7454 16.06652882    16"
                    ]
                },
                {
                    "noradId": "71382",
                    "tle": [
                        "1 71382C 26003AA  26013.10256944 -.01187100  00000+0 -16270-2 0   139",
                        "2 71382  43.0000 191.6411 0001590 267.9355  16.8261 16.06360695    12"
                    ]
                },
                {
                    "noradId": "71383",
                    "tle": [
                        "1 71383C 26003AB  26013.10395833 -.01186100  00000+0 -16168-2 0   136",
                        "2 71383  42.9999 191.6308 0001601 267.4933  25.8561 16.06447923    16"
                    ]
                },
                {
                    "noradId": "71381",
                    "tle": [
                        "1 71381C 26003Z   26013.10673611 -.01185700  00000+0 -16391-2 0   130",
                        "2 71381  43.0000 191.6162 0001677 265.8308  42.4626 16.06219181    18"
                    ]
                },
                {
                    "noradId": "71380",
                    "tle": [
                        "1 71380C 26003Y   26013.10395833 -.01183200  00000+0 -16554-2 0   130",
                        "2 71380  43.0001 191.6368 0001584 268.5540  22.5518 16.06021880    17"
                    ]
                },
                {
                    "noradId": "71378",
                    "tle": [
                        "1 71378C 26003W   26013.10326389 -.01183500  00000+0 -16470-2 0   137",
                        "2 71378  43.0000 191.6398 0001565 267.4883  20.1325 16.06109716    18"
                    ]
                },
                {
                    "noradId": "71379",
                    "tle": [
                        "1 71379C 26003X   26013.10673611 -.01182500  00000+0 -16643-2 0   132",
                        "2 71379  43.0000 191.6206 0001658 268.2317  38.4031 16.05923700    13"
                    ]
                },
                {
                    "noradId": "71377",
                    "tle": [
                        "1 71377C 26003V   26013.10465278 -.01178100  00000+0 -16714-2 0   138",
                        "2 71377  42.9999 191.6356 0001661 267.7242  26.2567 16.05789209    10"
                    ]
                },
                {
                    "noradId": "71376",
                    "tle": [
                        "1 71376C 26003U   26013.10465278 -.01175000  00000+0 -16791-2 0   138",
                        "2 71376  42.9999 191.6366 0001611 268.4112  24.9931 16.05668541    14"
                    ]
                },
                {
                    "noradId": "71375",
                    "tle": [
                        "1 71375C 26003T   26013.10465278 -.01174600  00000+0 -16875-2 0   135",
                        "2 71375  42.9998 191.6380 0001666 267.4858  25.3753 16.05580286    10"
                    ]
                },
                {
                    "noradId": "71374",
                    "tle": [
                        "1 71374C 26003S   26013.10187500 -.01175100  00000+0 -16963-2 0   137",
                        "2 71374  42.9998 191.6570 0001629 265.2039  11.0540 16.05503366    16"
                    ]
                },
                {
                    "noradId": "71373",
                    "tle": [
                        "1 71373C 26003R   26013.10187500 -.01170800  00000+0 -17032-2 0   136",
                        "2 71373  42.9998 191.6585 0001626 266.9143   8.7446 16.05371744    13"
                    ]
                },
                {
                    "noradId": "71372",
                    "tle": [
                        "1 71372C 26003Q   26013.10187500 -.01163000  00000+0 -17157-2 0   137",
                        "2 71372  42.9997 191.6615 0001633 270.0445   4.4680 16.05132070    14"
                    ]
                },
                {
                    "noradId": "71371",
                    "tle": [
                        "1 71371C 26003P   26013.10187500 -.01165700  00000+0 -17101-2 0   134",
                        "2 71371  42.9997 191.6600 0001628 267.5650   7.4924 16.05228052    10"
                    ]
                },
                {
                    "noradId": "71370",
                    "tle": [
                        "1 71370C 26003N   26013.10256944 -.01158800  00000+0 -17235-2 0   133",
                        "2 71370  42.9995 191.6583 0001622 271.5841   6.3513 16.04995091    13"
                    ]
                },
                {
                    "noradId": "71369",
                    "tle": [
                        "1 71369C 26003M   26013.10395833 -.01157400  00000+0 -17313-2 0   134",
                        "2 71369  42.9995 191.6511 0001659 266.9259  18.5011 16.04898640    13"
                    ]
                },
                {
                    "noradId": "71368",
                    "tle": [
                        "1 71368C 26003L   26013.10256944 -.01154800  00000+0 -17399-2 0   137",
                        "2 71368  42.9994 191.6614 0001605 267.5644   9.2399 16.04776165    14"
                    ]
                },
                {
                    "noradId": "71367",
                    "tle": [
                        "1 71367C 26003K   26013.10187500 -.01148900  00000+0 -17449-2 0   137",
                        "2 71367  42.9995 191.6673 0001523 271.1407   1.0526 16.04637830    13"
                    ]
                },
                {
                    "noradId": "71366",
                    "tle": [
                        "1 71366C 26003J   26013.10534722 -.01147500  00000+0 -17524-2 0   137",
                        "2 71366  42.9995 191.6467 0001619 271.1056  20.6381 16.04544728    18"
                    ]
                },
                {
                    "noradId": "71365",
                    "tle": [
                        "1 71365C 26003H   26013.10465278 -.01144900  00000+0 -17600-2 0   131",
                        "2 71365  42.9994 191.6522 0001566 271.6652  15.4910 16.04432057    17"
                    ]
                },
                {
                    "noradId": "71364",
                    "tle": [
                        "1 71364C 26003G   26013.10395833 -.01138600  00000+0 -17638-2 0   130",
                        "2 71364  42.9994 191.6584 0001550 271.1832  11.3643 16.04299241    16"
                    ]
                },
                {
                    "noradId": "71363",
                    "tle": [
                        "1 71363C 26003F   26013.10326389 -.01134700  00000+0 -17717-2 0   134",
                        "2 71363  42.9993 191.6640 0001621 271.8918   6.0382 16.04161578    10"
                    ]
                },
                {
                    "noradId": "71362",
                    "tle": [
                        "1 71362C 26003E   26013.10465278 -.01129900  00000+0 -17756-2 0   133",
                        "2 71362  42.9994 191.6569 0001598 270.2267  15.1787 16.04049763    14"
                    ]
                },
                {
                    "noradId": "71361",
                    "tle": [
                        "1 71361C 26003D   26013.10673611 -.01132600  00000+0 -17906-2 0   132",
                        "2 71361  42.9993 191.6449 0001558 272.5326  24.3610 16.03951642    10"
                    ]
                },
                {
                    "noradId": "71360",
                    "tle": [
                        "1 71360C 26003C   26013.10604167 -.01126800  00000+0 -17930-2 0   133",
                        "2 71360  42.9993 191.6509 0001600 272.8962  19.4145 16.03837419    16"
                    ]
                },
                {
                    "noradId": "71359",
                    "tle": [
                        "1 71359C 26003B   26013.10673611 -.01123200  00000+0 -17992-2 0   130",
                        "2 71359  42.9993 191.6479 0001597 272.1334  23.6214 16.03723091    15"
                    ]
                },
                {
                    "noradId": "71358",
                    "tle": [
                        "1 71358C 26003A   26013.10465278 -.01120900  00000+0 -18022-2 0   136",
                        "2 71358  42.9992 191.6622 0001522 271.7012  11.4976 16.03657475    11"
                    ]
                }
            ]
        }
    ],
    "config": {}
}